QIANFAN-14 OBJECT G     
1 69854U 26155G   26195.03077515  .00000221  00000+0  85059-4 0  9997
2 69854  89.0068  61.0791 0030343 227.9517 131.9095 14.26711045  1218
QIANFAN-14 OBJECT H     
1 69855U 26155H   26195.10085017  .00000272  00000+0  10599-3 0  9994
2 69855  89.0067  61.0711 0030283 227.7238 132.1388 14.26721637  1228
QIANFAN-14 OBJECT J     
1 69856U 26155J   26195.03068044  .00000278  00000+0  10843-3 0  9996
2 69856  89.0068  61.0791 0030266 228.0051 131.8565 14.26727259  1214
QIANFAN-14 OBJECT K     
1 69857U 26155K   26194.53824580 -.01763372  00000+0 -86789+0 0  9998
2 69857  89.0064  61.1349 0029489 233.2201 126.6283 14.21625323  1146
QIANFAN-14 OBJECT L     
1 69858U 26155L   26194.96050758  .00000241  00000+0  93339-4 0  9994
2 69858  89.0068  61.0871 0030214 227.9696 131.8926 14.26733671  1206
QIANFAN-14 OBJECT M     
1 69859U 26155M   26194.47020877 -.01928670  00000+0 -96794+0 0  9991
2 69859  89.0064  61.1435 0032302 229.4484 130.3893 14.20245376  1135
QIANFAN-14 OBJECT N     
1 69860U 26155N   26195.17285907  .00000286  00000+0  11311-3 0  9995
2 69860  89.0069  61.0636 0030404 226.2732 133.5944 14.26095380  1233
QIANFAN-14 OBJECT P     
1 69861U 26155P   26195.03062101  .00000245  00000+0  94727-4 0  9998
2 69861  89.0066  61.0790 0030193 228.0702 131.7917 14.26734925  1217
QIANFAN-14 OBJECT Q     
1 69862U 26155Q   26195.10067545  .00000295  00000+0  11556-3 0  9997
2 69862  89.0067  61.0711 0030171 227.5795 132.2846 14.26751019  1225
QIANFAN-14 OBJECT R     
1 69863U 26155R   26195.17077058  .00000288  00000+0  11235-3 0  9991
2 69863  89.0068  61.0631 0030135 227.4322 132.4328 14.26757608  1231
QIANFAN-14 OBJECT S     
1 69864U 26155S   26194.53838446 -.01827141  00000+0 -89506+0 0  9997
2 69864  89.0064  61.1353 0029651 232.4779 127.3717 14.21365861  1149
QIANFAN-14 OBJECT T     
1 69865U 26155T   26195.17070522  .00000264  00000+0  10250-3 0  9992
2 69865  89.0067  61.0631 0030060 227.4422 132.4234 14.26768552  1236
QIANFAN-14 OBJECT U     
1 69866U 26155U   26195.17065424  .00000153  00000+0  57019-4 0  9990
2 69866  89.0068  61.0631 0030050 227.3965 132.4694 14.26776663  1229
QIANFAN-14 OBJECT V     
1 69867U 26155V   26195.17061022  .00000074  00000+0  24354-4 0  9999
2 69867  89.0067  61.0630 0030017 227.4907 132.3751 14.26784009  1235
