{"fetched_at":"2026-07-14T17:40:26.806Z","source":"https://celestrak.org/NORAD/elements/gp.php?GROUP=qianfan&FORMAT=JSON","constellation":"qianfan","records":[{"OBJECT_NAME":"QIANFAN-14 OBJECT G","OBJECT_ID":"2026-155G","EPOCH":"2026-07-14T00:44:18.972960","CLASSIFICATION_TYPE":"U","MEAN_MOTION":14.26711045,"ECCENTRICITY":0.0030343,"INCLINATION":89.0068,"RA_OF_ASC_NODE":61.0791,"ARG_OF_PERICENTER":227.9517,"MEAN_ANOMALY":131.9095,"EPHEMERIS_TYPE":0,"NORAD_CAT_ID":69854,"ELEMENT_SET_NO":999,"REV_AT_EPOCH":121,"BSTAR":0.000085059,"MEAN_MOTION_DOT":0.00000221,"MEAN_MOTION_DDOT":0},{"OBJECT_NAME":"QIANFAN-14 OBJECT H","OBJECT_ID":"2026-155H","EPOCH":"2026-07-14T02:25:13.454688","CLASSIFICATION_TYPE":"U","MEAN_MOTION":14.26721637,"ECCENTRICITY":0.0030283,"INCLINATION":89.0067,"RA_OF_ASC_NODE":61.0711,"ARG_OF_PERICENTER":227.7238,"MEAN_ANOMALY":132.1388,"EPHEMERIS_TYPE":0,"NORAD_CAT_ID":69855,"ELEMENT_SET_NO":999,"REV_AT_EPOCH":122,"BSTAR":0.00010599,"MEAN_MOTION_DOT":0.00000272,"MEAN_MOTION_DDOT":0},{"OBJECT_NAME":"QIANFAN-14 OBJECT J","OBJECT_ID":"2026-155J","EPOCH":"2026-07-14T00:44:10.790016","CLASSIFICATION_TYPE":"U","MEAN_MOTION":14.26727259,"ECCENTRICITY":0.0030266,"INCLINATION":89.0068,"RA_OF_ASC_NODE":61.0791,"ARG_OF_PERICENTER":228.0051,"MEAN_ANOMALY":131.8565,"EPHEMERIS_TYPE":0,"NORAD_CAT_ID":69856,"ELEMENT_SET_NO":999,"REV_AT_EPOCH":121,"BSTAR":0.00010843,"MEAN_MOTION_DOT":0.00000278,"MEAN_MOTION_DDOT":0},{"OBJECT_NAME":"QIANFAN-14 OBJECT K","OBJECT_ID":"2026-155K","EPOCH":"2026-07-13T12:55:04.437120","CLASSIFICATION_TYPE":"U","MEAN_MOTION":14.21625323,"ECCENTRICITY":0.0029489,"INCLINATION":89.0064,"RA_OF_ASC_NODE":61.1349,"ARG_OF_PERICENTER":233.2201,"MEAN_ANOMALY":126.6283,"EPHEMERIS_TYPE":0,"NORAD_CAT_ID":69857,"ELEMENT_SET_NO":999,"REV_AT_EPOCH":114,"BSTAR":-0.86789,"MEAN_MOTION_DOT":-0.01763372,"MEAN_MOTION_DDOT":0},{"OBJECT_NAME":"QIANFAN-14 OBJECT L","OBJECT_ID":"2026-155L","EPOCH":"2026-07-13T23:03:07.854912","CLASSIFICATION_TYPE":"U","MEAN_MOTION":14.26733671,"ECCENTRICITY":0.0030214,"INCLINATION":89.0068,"RA_OF_ASC_NODE":61.0871,"ARG_OF_PERICENTER":227.9696,"MEAN_ANOMALY":131.8926,"EPHEMERIS_TYPE":0,"NORAD_CAT_ID":69858,"ELEMENT_SET_NO":999,"REV_AT_EPOCH":120,"BSTAR":0.000093339,"MEAN_MOTION_DOT":0.00000241,"MEAN_MOTION_DDOT":0},{"OBJECT_NAME":"QIANFAN-14 OBJECT M","OBJECT_ID":"2026-155M","EPOCH":"2026-07-13T11:17:06.037728","CLASSIFICATION_TYPE":"U","MEAN_MOTION":14.20245376,"ECCENTRICITY":0.0032302,"INCLINATION":89.0064,"RA_OF_ASC_NODE":61.1435,"ARG_OF_PERICENTER":229.4484,"MEAN_ANOMALY":130.3893,"EPHEMERIS_TYPE":0,"NORAD_CAT_ID":69859,"ELEMENT_SET_NO":999,"REV_AT_EPOCH":113,"BSTAR":-0.96794,"MEAN_MOTION_DOT":-0.0192867,"MEAN_MOTION_DDOT":0},{"OBJECT_NAME":"QIANFAN-14 OBJECT N","OBJECT_ID":"2026-155N","EPOCH":"2026-07-14T04:08:55.023648","CLASSIFICATION_TYPE":"U","MEAN_MOTION":14.2609538,"ECCENTRICITY":0.0030404,"INCLINATION":89.0069,"RA_OF_ASC_NODE":61.0636,"ARG_OF_PERICENTER":226.2732,"MEAN_ANOMALY":133.5944,"EPHEMERIS_TYPE":0,"NORAD_CAT_ID":69860,"ELEMENT_SET_NO":999,"REV_AT_EPOCH":123,"BSTAR":0.00011311,"MEAN_MOTION_DOT":0.00000286,"MEAN_MOTION_DDOT":0},{"OBJECT_NAME":"QIANFAN-14 OBJECT P","OBJECT_ID":"2026-155P","EPOCH":"2026-07-14T00:44:05.655264","CLASSIFICATION_TYPE":"U","MEAN_MOTION":14.26734925,"ECCENTRICITY":0.0030193,"INCLINATION":89.0066,"RA_OF_ASC_NODE":61.079,"ARG_OF_PERICENTER":228.0702,"MEAN_ANOMALY":131.7917,"EPHEMERIS_TYPE":0,"NORAD_CAT_ID":69861,"ELEMENT_SET_NO":999,"REV_AT_EPOCH":121,"BSTAR":0.000094727,"MEAN_MOTION_DOT":0.00000245,"MEAN_MOTION_DDOT":0},{"OBJECT_NAME":"QIANFAN-14 OBJECT Q","OBJECT_ID":"2026-155Q","EPOCH":"2026-07-14T02:24:58.358880","CLASSIFICATION_TYPE":"U","MEAN_MOTION":14.26751019,"ECCENTRICITY":0.0030171,"INCLINATION":89.0067,"RA_OF_ASC_NODE":61.0711,"ARG_OF_PERICENTER":227.5795,"MEAN_ANOMALY":132.2846,"EPHEMERIS_TYPE":0,"NORAD_CAT_ID":69862,"ELEMENT_SET_NO":999,"REV_AT_EPOCH":122,"BSTAR":0.00011556,"MEAN_MOTION_DOT":0.00000295,"MEAN_MOTION_DDOT":0},{"OBJECT_NAME":"QIANFAN-14 OBJECT R","OBJECT_ID":"2026-155R","EPOCH":"2026-07-14T04:05:54.578112","CLASSIFICATION_TYPE":"U","MEAN_MOTION":14.26757608,"ECCENTRICITY":0.0030135,"INCLINATION":89.0068,"RA_OF_ASC_NODE":61.0631,"ARG_OF_PERICENTER":227.4322,"MEAN_ANOMALY":132.4328,"EPHEMERIS_TYPE":0,"NORAD_CAT_ID":69863,"ELEMENT_SET_NO":999,"REV_AT_EPOCH":123,"BSTAR":0.00011235,"MEAN_MOTION_DOT":0.00000288,"MEAN_MOTION_DDOT":0},{"OBJECT_NAME":"QIANFAN-14 OBJECT S","OBJECT_ID":"2026-155S","EPOCH":"2026-07-13T12:55:16.417344","CLASSIFICATION_TYPE":"U","MEAN_MOTION":14.21365861,"ECCENTRICITY":0.0029651,"INCLINATION":89.0064,"RA_OF_ASC_NODE":61.1353,"ARG_OF_PERICENTER":232.4779,"MEAN_ANOMALY":127.3717,"EPHEMERIS_TYPE":0,"NORAD_CAT_ID":69864,"ELEMENT_SET_NO":999,"REV_AT_EPOCH":114,"BSTAR":-0.89506,"MEAN_MOTION_DOT":-0.01827141,"MEAN_MOTION_DDOT":0},{"OBJECT_NAME":"QIANFAN-14 OBJECT T","OBJECT_ID":"2026-155T","EPOCH":"2026-07-14T04:05:48.931008","CLASSIFICATION_TYPE":"U","MEAN_MOTION":14.26768552,"ECCENTRICITY":0.003006,"INCLINATION":89.0067,"RA_OF_ASC_NODE":61.0631,"ARG_OF_PERICENTER":227.4422,"MEAN_ANOMALY":132.4234,"EPHEMERIS_TYPE":0,"NORAD_CAT_ID":69865,"ELEMENT_SET_NO":999,"REV_AT_EPOCH":123,"BSTAR":0.0001025,"MEAN_MOTION_DOT":0.00000264,"MEAN_MOTION_DDOT":0},{"OBJECT_NAME":"QIANFAN-14 OBJECT U","OBJECT_ID":"2026-155U","EPOCH":"2026-07-14T04:05:44.526336","CLASSIFICATION_TYPE":"U","MEAN_MOTION":14.26776663,"ECCENTRICITY":0.003005,"INCLINATION":89.0068,"RA_OF_ASC_NODE":61.0631,"ARG_OF_PERICENTER":227.3965,"MEAN_ANOMALY":132.4694,"EPHEMERIS_TYPE":0,"NORAD_CAT_ID":69866,"ELEMENT_SET_NO":999,"REV_AT_EPOCH":122,"BSTAR":0.000057019,"MEAN_MOTION_DOT":0.00000153,"MEAN_MOTION_DDOT":0},{"OBJECT_NAME":"QIANFAN-14 OBJECT V","OBJECT_ID":"2026-155V","EPOCH":"2026-07-14T04:05:40.723008","CLASSIFICATION_TYPE":"U","MEAN_MOTION":14.26784009,"ECCENTRICITY":0.0030017,"INCLINATION":89.0067,"RA_OF_ASC_NODE":61.063,"ARG_OF_PERICENTER":227.4907,"MEAN_ANOMALY":132.3751,"EPHEMERIS_TYPE":0,"NORAD_CAT_ID":69867,"ELEMENT_SET_NO":999,"REV_AT_EPOCH":123,"BSTAR":0.000024354,"MEAN_MOTION_DOT":7.4e-7,"MEAN_MOTION_DDOT":0}]}
